[{"OBJECT_NAME":"NUSAT-49 (KLARA DAN VON NEUMANN)","OBJECT_ID":"2024-149AJ","EPOCH":"2026-03-09T19:09:16.004160","MEAN_MOTION":15.30828857,"ECCENTRICITY":0.00011321,"INCLINATION":97.3807,"RA_OF_ASC_NODE":150.738,"ARG_OF_PERICENTER":286.7761,"MEAN_ANOMALY":73.3356,"EPHEMERIS_TYPE":0,"CLASSIFICATION_TYPE":"U","NORAD_CAT_ID":60500,"ELEMENT_SET_NO":999,"REV_AT_EPOCH":8693,"BSTAR":0.00043568345,"MEAN_MOTION_DOT":0.00012912,"MEAN_MOTION_DDOT":0},{"OBJECT_NAME":"STARLINK-34302","OBJECT_ID":"2025-176U","EPOCH":"2026-03-09T11:20:59.403264","MEAN_MOTION":15.30202628,"ECCENTRICITY":0.00012644,"INCLINATION":53.1595,"RA_OF_ASC_NODE":153.9872,"ARG_OF_PERICENTER":134.6336,"MEAN_ANOMALY":225.4768,"EPHEMERIS_TYPE":0,"CLASSIFICATION_TYPE":"U","NORAD_CAT_ID":65216,"ELEMENT_SET_NO":999,"REV_AT_EPOCH":3308,"BSTAR":0.00072557664,"MEAN_MOTION_DOT":0.00021193,"MEAN_MOTION_DDOT":0}]
